[{"OBJECT_NAME":"STARLINK-34345","OBJECT_ID":"2025-112H","EPOCH":"2026-03-09T17:15:00.035424","MEAN_MOTION":15.05657866,"ECCENTRICITY":0.00010955,"INCLINATION":97.602,"RA_OF_ASC_NODE":121.5609,"ARG_OF_PERICENTER":137.5756,"MEAN_ANOMALY":222.5555,"EPHEMERIS_TYPE":0,"CLASSIFICATION_TYPE":"U","NORAD_CAT_ID":64153,"ELEMENT_SET_NO":999,"REV_AT_EPOCH":4331,"BSTAR":0.00038783204,"MEAN_MOTION_DOT":5.541e-5,"MEAN_MOTION_DDOT":0},{"OBJECT_NAME":"PEGASUS DEB","OBJECT_ID":"1994-029JY","EPOCH":"2026-03-09T23:11:54.295296","MEAN_MOTION":14.90653362,"ECCENTRICITY":0.0070631,"INCLINATION":82.0876,"RA_OF_ASC_NODE":46.3317,"ARG_OF_PERICENTER":279.2549,"MEAN_ANOMALY":134.3773,"EPHEMERIS_TYPE":0,"CLASSIFICATION_TYPE":"U","NORAD_CAT_ID":24197,"ELEMENT_SET_NO":999,"REV_AT_EPOCH":68196,"BSTAR":0.0004359638,"MEAN_MOTION_DOT":4.503e-5,"MEAN_MOTION_DDOT":0}]
